start=new Date('2021-08-25T00:00:00.000Z').valueOf();
sats=[{"RA_OF_ASC_NODE":"188.4310","PERIOD":"95.513","ELEMENT_SET_NO":"999","EPOCH":"2021-08-24T09:16:46.548768","TLE_LINE2":"2 44963  52.9995 188.4310 0000665  72.0335 288.0726 15.07645840 91226","APOAPSIS":"543.858","PERIAPSIS":"542.938","COUNTRY_CODE":"US","OBJECT_NAME":"STARLINK-1085","MEAN_MOTION_DDOT":"0.0000000000000","INCLINATION":"52.9995","TIME_SYSTEM":"UTC","SEMIMAJOR_AXIS":"6921.533","GP_ID":"183358311","CLASSIFICATION_TYPE":"U","NORAD_CAT_ID":"44963","MEAN_MOTION_DOT":"0.00002721","FILE":"3102457","OBJECT_ID":"2020-001BB","OBJECT_TYPE":"PAYLOAD","ECCENTRICITY":"0.00006650","RCS_SIZE":"LARGE","REV_AT_EPOCH":"9122","SITE":"AFETR","BSTAR":"0.00019499000000","MEAN_MOTION":"15.07645840","DECAY_DATE":null,"EPHEMERIS_TYPE":"0","MEAN_ELEMENT_THEORY":"SGP4","REF_FRAME":"TEME","TLE_LINE1":"1 44963U 20001BB  21236.38664987  .00002721  00000-0  19499-3 0  9991","ARG_OF_PERICENTER":"72.0335","MEAN_ANOMALY":"288.0726","LAUNCH_DATE":"2020-01-07","CENTER_NAME":"EARTH"},{"OBJECT_NAME":"STARLINK-1086","MEAN_MOTION_DDOT":"0.0000000000000","COUNTRY_CODE":"US","APOAPSIS":"548.283","TLE_LINE2":"2 44964  53.0549 191.3739 0001532  62.3970 297.7175 15.06397138 90455","PERIAPSIS":"546.161","EPOCH":"2021-08-24T07:29:52.059840","PERIOD":"95.592","ELEMENT_SET_NO":"999","RA_OF_ASC_NODE":"191.3739","ARG_OF_PERICENTER":"62.3970","TLE_LINE1":"1 44964U 20001BC  21236.31240810 -.00001079  00000-0 -53564-4 0  9999","REF_FRAME":"TEME","LAUNCH_DATE":"2020-01-07","CENTER_NAME":"EARTH","MEAN_ANOMALY":"297.7175","MEAN_ELEMENT_THEORY":"SGP4","EPHEMERIS_TYPE":"0","BSTAR":"-0.00005356400000","SITE":"AFETR","RCS_SIZE":"LARGE","REV_AT_EPOCH":"9045","OBJECT_TYPE":"PAYLOAD","ECCENTRICITY":"0.00015320","DECAY_DATE":null,"MEAN_MOTION":"15.06397138","CLASSIFICATION_TYPE":"U","GP_ID":"183358561","SEMIMAJOR_AXIS":"6925.357","TIME_SYSTEM":"UTC","INCLINATION":"53.0549","OBJECT_ID":"2020-001BC","FILE":"3102457","NORAD_CAT_ID":"44964","MEAN_MOTION_DOT":"-0.00001079"},{"APOAPSIS":"548.361","TLE_LINE2":"2 44966  53.0539 191.5659 0001643  81.4910 278.6265 15.06397004 90447","PERIAPSIS":"546.085","EPOCH":"2021-08-24T06:26:10.389984","PERIOD":"95.592","ELEMENT_SET_NO":"999","RA_OF_ASC_NODE":"191.5659","OBJECT_NAME":"STARLINK-1088","MEAN_MOTION_DDOT":"0.0000000000000","COUNTRY_CODE":"US","BSTAR":"-0.00007956900000","SITE":"AFETR","REV_AT_EPOCH":"9044","RCS_SIZE":"LARGE","OBJECT_TYPE":"PAYLOAD","ECCENTRICITY":"0.00016430","DECAY_DATE":null,"MEAN_MOTION":"15.06397004","CLASSIFICATION_TYPE":"U","SEMIMAJOR_AXIS":"6925.358","GP_ID":"183359802","INCLINATION":"53.0539","TIME_SYSTEM":"UTC","OBJECT_ID":"2020-001BE","FILE":"3102457","MEAN_MOTION_DOT":"-0.00001466","NORAD_CAT_ID":"44966","ARG_OF_PERICENTER":"81.4910","TLE_LINE1":"1 44966U 20001BE  21236.26817581 -.00001466  00000-0 -79569-4 0  9993","REF_FRAME":"TEME","LAUNCH_DATE":"2020-01-07","CENTER_NAME":"EARTH","MEAN_ANOMALY":"278.6265","MEAN_ELEMENT_THEORY":"SGP4","EPHEMERIS_TYPE":"0"},{"COUNTRY_CODE":"US","OBJECT_NAME":"STARLINK-1089","MEAN_MOTION_DDOT":"0.0000000000000","RA_OF_ASC_NODE":"191.4695","PERIOD":"95.592","EPOCH":"2021-08-24T06:58:02.753760","ELEMENT_SET_NO":"999","TLE_LINE2":"2 44967  53.0543 191.4695 0001295  62.0362 298.0758 15.06401586 90456","APOAPSIS":"548.106","PERIAPSIS":"546.312","EPHEMERIS_TYPE":"0","MEAN_ELEMENT_THEORY":"SGP4","REF_FRAME":"TEME","TLE_LINE1":"1 44967U 20001BF  21236.29030965  .00000672  00000-0  63998-4 0  9995","ARG_OF_PERICENTER":"62.0362","MEAN_ANOMALY":"298.0758","CENTER_NAME":"EARTH","LAUNCH_DATE":"2020-01-07","TIME_SYSTEM":"UTC","INCLINATION":"53.0543","SEMIMAJOR_AXIS":"6925.344","GP_ID":"183360053","CLASSIFICATION_TYPE":"U","NORAD_CAT_ID":"44967","MEAN_MOTION_DOT":"0.00000672","FILE":"3102457","OBJECT_ID":"2020-001BF","ECCENTRICITY":"0.00012950","OBJECT_TYPE":"PAYLOAD","RCS_SIZE":"LARGE","REV_AT_EPOCH":"9045","SITE":"AFETR","BSTAR":"0.00006399800000","MEAN_MOTION":"15.06401586","DECAY_DATE":null},{"REF_FRAME":"TEME","TLE_LINE1":"1 44968U 20001BG  21236.68468206 -.00001122  00000-0 -56480-4 0  9993","ARG_OF_PERICENTER":"62.3484","MEAN_ANOMALY":"297.7658","CENTER_NAME":"EARTH","LAUNCH_DATE":"2020-01-07","EPHEMERIS_TYPE":"0","MEAN_ELEMENT_THEORY":"SGP4","OBJECT_TYPE":"PAYLOAD","ECCENTRICITY":"0.00015080","RCS_SIZE":"LARGE","REV_AT_EPOCH":"9051","SITE":"AFETR","BSTAR":"-0.00005648000000","MEAN_MOTION":"15.06391001","DECAY_DATE":null,"INCLINATION":"53.0540","TIME_SYSTEM":"UTC","SEMIMAJOR_AXIS":"6925.376","GP_ID":"183384240","CLASSIFICATION_TYPE":"U","MEAN_MOTION_DOT":"-0.00001122","NORAD_CAT_ID":"44968","FILE":"3102580","OBJECT_ID":"2020-001BG","OBJECT_NAME":"STARLINK-1090","MEAN_MOTION_DDOT":"0.0000000000000","COUNTRY_CODE":"US","TLE_LINE2":"2 44968  53.0540 189.6950 0001508  62.3484 297.7658 15.06391001 90514","APOAPSIS":"548.285","PERIAPSIS":"546.197","RA_OF_ASC_NODE":"189.6950","PERIOD":"95.593","ELEMENT_SET_NO":"999","EPOCH":"2021-08-24T16:25:56.529984"},{"TLE_LINE2":"2 44969  53.0539 191.5170 0001475  56.1817 303.9312 15.06398574 90444","APOAPSIS":"548.239","PERIAPSIS":"546.196","PERIOD":"95.592","ELEMENT_SET_NO":"999","EPOCH":"2021-08-24T06:42:05.468544","RA_OF_ASC_NODE":"191.5170","MEAN_MOTION_DDOT":"0.0000000000000","OBJECT_NAME":"STARLINK-1092","COUNTRY_CODE":"US","SITE":"AFETR","BSTAR":"-0.00004719200000","OBJECT_TYPE":"PAYLOAD","ECCENTRICITY":"0.00014750","RCS_SIZE":"LARGE","REV_AT_EPOCH":"9044","MEAN_MOTION":"15.06398574","DECAY_DATE":null,"SEMIMAJOR_AXIS":"6925.353","GP_ID":"183359062","CLASSIFICATION_TYPE":"U","INCLINATION":"53.0539","TIME_SYSTEM":"UTC","FILE":"3102457","OBJECT_ID":"2020-001BH","MEAN_MOTION_DOT":"-0.00000984","NORAD_CAT_ID":"44969","TLE_LINE1":"1 44969U 20001BH  21236.27922996 -.00000984  00000-0 -47192-4 0  9995","ARG_OF_PERICENTER":"56.1817","REF_FRAME":"TEME","CENTER_NAME":"EARTH","LAUNCH_DATE":"2020-01-07","MEAN_ANOMALY":"303.9312","MEAN_ELEMENT_THEORY":"SGP4","EPHEMERIS_TYPE":"0"},{"RA_OF_ASC_NODE":"191.0160","EPOCH":"2021-08-24T09:21:19.773216","PERIOD":"95.593","ELEMENT_SET_NO":"999","APOAPSIS":"548.370","TLE_LINE2":"2 44970  53.0567 191.0160 0001632  63.0953 297.0203 15.06391329 90458","PERIAPSIS":"546.110","COUNTRY_CODE":"US","OBJECT_NAME":"STARLINK-1093","MEAN_MOTION_DDOT":"0.0000000000000","INCLINATION":"53.0567","TIME_SYSTEM":"UTC","CLASSIFICATION_TYPE":"U","SEMIMAJOR_AXIS":"6925.375","GP_ID":"183359302","NORAD_CAT_ID":"44970","MEAN_MOTION_DOT":"-0.00000684","OBJECT_ID":"2020-001BJ","FILE":"3102457","RCS_SIZE":"LARGE","REV_AT_EPOCH":"9045","ECCENTRICITY":"0.00016320","OBJECT_TYPE":"PAYLOAD","BSTAR":"-0.00002703900000","SITE":"AFETR","DECAY_DATE":null,"MEAN_MOTION":"15.06391329","EPHEMERIS_TYPE":"0","MEAN_ELEMENT_THEORY":"SGP4","REF_FRAME":"TEME","ARG_OF_PERICENTER":"63.0953","TLE_LINE1":"1 44970U 20001BJ  21236.38981219 -.00000684  00000-0 -27039-4 0  9997","MEAN_ANOMALY":"297.0203","CENTER_NAME":"EARTH","LAUNCH_DATE":"2020-01-07"},{"COUNTRY_CODE":"US","OBJECT_NAME":"STARLINK-1095","MEAN_MOTION_DDOT":"0.0000000000000","PERIOD":"90.889","ELEMENT_SET_NO":"999","EPOCH":"2021-08-24T22:49:31.453536","RA_OF_ASC_NODE":"148.7099","APOAPSIS":"323.471","TLE_LINE2":"2 44971  53.0203 148.7099 0007910 275.2679  84.7441 15.84343997 91093","PERIAPSIS":"312.878","MEAN_ELEMENT_THEORY":"SGP4","EPHEMERIS_TYPE":"0","ARG_OF_PERICENTER":"275.2679","TLE_LINE1":"1 44971U 20001BK  21236.95105849  .00192260  00000-0  81110-3 0  9997","REF_FRAME":"TEME","LAUNCH_DATE":"2020-01-07","CENTER_NAME":"EARTH","MEAN_ANOMALY":"84.7441","CLASSIFICATION_TYPE":"U","SEMIMAJOR_AXIS":"6696.310","GP_ID":"183383990","INCLINATION":"53.0203","TIME_SYSTEM":"UTC","OBJECT_ID":"2020-001BK","FILE":"3102580","MEAN_MOTION_DOT":"0.00192260","NORAD_CAT_ID":"44971","BSTAR":"0.00081110000000","SITE":"AFETR","REV_AT_EPOCH":"9109","RCS_SIZE":"LARGE","OBJECT_TYPE":"PAYLOAD","ECCENTRICITY":"0.00079100","DECAY_DATE":null,"MEAN_MOTION":"15.84343997"},{"SITE":"AFETR","BSTAR":"-0.00001291400000","OBJECT_TYPE":"PAYLOAD","ECCENTRICITY":"0.00012840","RCS_SIZE":"LARGE","REV_AT_EPOCH":"9048","MEAN_MOTION":"15.06398813","DECAY_DATE":null,"SEMIMAJOR_AXIS":"6925.352","GP_ID":"183384740","CLASSIFICATION_TYPE":"U","INCLINATION":"53.0531","TIME_SYSTEM":"UTC","FILE":"3102580","OBJECT_ID":"2020-001BL","MEAN_MOTION_DOT":"-0.00000474","NORAD_CAT_ID":"44972","TLE_LINE1":"1 44972U 20001BL  21236.49300802 -.00000474  00000-0 -12914-4 0  9997","ARG_OF_PERICENTER":"37.8139","REF_FRAME":"TEME","CENTER_NAME":"EARTH","LAUNCH_DATE":"2020-01-07","MEAN_ANOMALY":"322.2940","MEAN_ELEMENT_THEORY":"SGP4","EPHEMERIS_TYPE":"0","TLE_LINE2":"2 44972  53.0531 190.5580 0001284  37.8139 322.2940 15.06398813 90486","APOAPSIS":"548.106","PERIAPSIS":"546.328","PERIOD":"95.592","ELEMENT_SET_NO":"999","EPOCH":"2021-08-24T11:49:55.892928","RA_OF_ASC_NODE":"190.5580","OBJECT_NAME":"STARLINK-1107","MEAN_MOTION_DDOT":"0.0000000000000","COUNTRY_CODE":"US"},{"EPHEMERIS_TYPE":"0","MEAN_ELEMENT_THEORY":"SGP4","MEAN_ANOMALY":"303.0319","LAUNCH_DATE":"2020-01-07","CENTER_NAME":"EARTH","REF_FRAME":"TEME","ARG_OF_PERICENTER":"57.0828","TLE_LINE1":"1 44973U 20001BM  21236.13916223 -.00003633  00000-0 -22508-3 0  9998","MEAN_MOTION_DOT":"-0.00003633","NORAD_CAT_ID":"44973","OBJECT_ID":"2020-001BM","FILE":"3102457","TIME_SYSTEM":"UTC","INCLINATION":"53.0544","CLASSIFICATION_TYPE":"U","GP_ID":"183358562","SEMIMAJOR_AXIS":"6925.323","DECAY_DATE":null,"MEAN_MOTION":"15.06408262","REV_AT_EPOCH":"9042","RCS_SIZE":"LARGE","OBJECT_TYPE":"PAYLOAD","ECCENTRICITY":"0.00016410","BSTAR":"-0.00022508000000","SITE":"AFETR","COUNTRY_CODE":"US","OBJECT_NAME":"STARLINK-1115","MEAN_MOTION_DDOT":"0.0000000000000","RA_OF_ASC_NODE":"192.1439","EPOCH":"2021-08-24T03:20:23.616672","PERIOD":"95.592","ELEMENT_SET_NO":"999","PERIAPSIS":"546.052","APOAPSIS":"548.325","TLE_LINE2":"2 44973  53.0544 192.1439 0001641  57.0828 303.0319 15.06408262 90429"}];
